#aV2022  9  3  0  0  0.00000000     288 DD+AD WGS84 FIT  NGA
## 2225 518400.00000000   300.00000000 59825 0.0000000000000
+   32     1  2  3  4  5  6  7  8  9 10 11 12 13 14 15 16 17
+         18 19 20 21 22 23 24 25 26 27 28 29 30 31 32  0  0
+          0  0  0  0  0  0  0  0  0  0  0  0  0  0  0  0  0
+          0  0  0  0  0  0  0  0  0  0  0  0  0  0  0  0  0
+          0  0  0  0  0  0  0  0  0  0  0  0  0  0  0  0  0
++         2  2  2  2  2  2  2  2  2  2  2  2  2  2  2  2  2
++         2  2  2  2  2  2  2  2  2  2  2  2  2  2  2  0  0
++         0  0  0  0  0  0  0  0  0  0  0  0  0  0  0  0  0
++         0  0  0  0  0  0  0  0  0  0  0  0  0  0  0  0  0
++         0  0  0  0  0  0  0  0  0  0  0  0  0  0  0  0  0
%c cc cc ccc ccc cccc cccc cccc cccc ccccc ccccc ccccc ccccc
%c cc cc ccc ccc cccc cccc cccc cccc ccccc ccccc ccccc ccccc
%f  0.0000000  0.000000000  0.00000000000  0.000000000000000
%f  0.0000000  0.000000000  0.00000000000  0.000000000000000
%i    0    0    0    0      0      0      0      0         0
%i    0    0    0    0      0      0      0      0         0
/*      NGA, ST. LOUIS,MO.                                  
/*   EPHEMERIS COMPUTED FROM 2 DAYS OF DATA                 
/*   EPOCHA v8 SMOOTHER                                     
/*   G2139 IERS2010 SATIGS SATAPC                           
*  2022  9  3 15 15  0.00000000
P  1   8069.690145  13565.804195 -21728.171843    290.345425                    
V  1 -26555.558464   2959.257264  -7803.515822     -0.067044                    
P  2   4211.516370 -15954.912023  21497.707154   -647.222300                    
V  2  25373.317955  -4454.123202  -8367.990460      0.011865                    
P  3  11087.425375  23140.140342  -7195.226253   -344.652291                    
V  3  -7032.701708  -5902.529957 -30240.213491     -0.069143                    
P  4   1770.572696  21454.900778  15498.374599   -124.026828                    
V  4 -10273.718507  16938.343251 -22372.415995      0.054114                    
P  5  -1325.223249 -20286.339049  16846.437315    -95.297218                    
V  5  15178.142600  15732.444103  20060.184412     -0.014117                    
P  6  24967.700596  -6833.090161   6185.615946    448.422902                    
V  6   7886.639972    958.642434 -31013.249818      0.131295                    
P  7  22282.852589   7167.528176  13421.935044    310.333631                    
V  7 -15875.723585   3791.946573  24634.308541     -0.027421                    
P  8  -4311.752051  24864.779798  -7711.549384    -83.102709                    
V  8  -6361.055243   8029.073678  29943.606300     -0.015867                    
P  9  11022.409802  12039.169232  20871.602985   -300.581096                    
V  9 -10879.316071  24397.247368  -8335.049910      0.045839                    
P 10 -18911.557096  -4968.497652 -17968.058190     -1.674743                    
V 10 -12742.455347 -19146.926565  18254.709926     -0.016470                    
P 11  17451.830085 -12139.202454  15898.861104    -14.106638                    
V 11  20277.351285    645.303190 -21794.061366     -0.022053                    
P 12  -8408.886450 -23915.844972  -8366.248068   -272.541867                    
V 12   7403.555211   7403.446261 -29441.303179     -0.059861                    
P 13  12991.830231 -23026.906379  -1198.982615    380.465995                    
V 13   2997.802704    261.234050  32017.447693      0.073511                    
P 14  19334.415576   6808.696666 -16940.237973   -105.935523                    
V 14  10626.921415  18797.341410  19567.550167      0.022871                    
P 15    970.770298 -25264.129790  -8048.118515    -31.995648                    
V 15   6180.162657  -8402.959821  28971.706460      0.030859                    
P 16  -6150.529117  16092.175583  19808.339495   -522.961402                    
V 16 -14644.537350 -21375.679802  13088.734049     -0.012764                    
P 17  16797.023926  -3504.429195 -19854.355257    655.356476                    
V 17 -10959.778882  23728.924295 -13118.031579      0.039161                    
P 18 -22661.742713  -6344.103450  12437.829096     60.725267                    
V 18  15479.740362  -3425.565832  26306.915596     -0.125007                    
P 19  18400.724370 -12447.751315 -14612.177680    205.832899                    
V 19  -7387.053426  16732.645617 -24196.187573      0.050439                    
P 20   9970.071808 -12011.138319  21501.423170    489.440160                    
V 20  19626.066414  19037.534847   1306.787721     -0.031115                    
P 21  -1504.551921  15256.919167 -20986.364545    159.869650                    
V 21 -27846.144848   4646.657080   5930.286406     -0.004126                    
P 22 -17633.838949  15546.461113 -11770.541367    321.321553                    
V 22   5123.109518 -15023.465919 -26750.571896      0.067496                    
P 23 -20125.959895 -13869.107777 -10559.875670    -38.797579                    
V 23  -6577.153780 -11794.001409  27933.862739     -0.009782                    
P 24  -4197.748543 -15405.466127 -21550.834380    147.798721                    
V 24  26218.623144  -5167.993771  -1013.144700     -0.124697                    
P 25 -17386.622314 -20078.518601   2521.188243    368.044650                    
V 25     81.827120  -4480.791977 -31243.741855      0.041493                    
P 26 -13139.378968   8729.507833  21294.782944    226.851660                    
V 26 -17478.030153 -21004.262045  -1847.635423      0.017789                    
P 27 -12625.525663  22780.410938   3761.868110    215.005811                    
V 27   -559.236575  -5788.616930  31765.446399     -0.032517                    
P 28  15521.565025  -2209.634960 -20895.135415    339.899902                    
V 28  13706.389774  24139.131432   7682.341685     -0.012569                    
P 29  -9099.122963 -13155.163999  21140.699048   -548.439132                    
V 29  13122.828162 -23508.178016  -9039.230874     -0.032648                    
P 30  26523.097558   -355.607184   3132.054624   -536.653068                    
V 30  -3497.034651   3711.870366  30694.490168     -0.003445                    
P 31 -24600.027007   7510.034193   7382.368975   -192.031212                    
V 31  -9637.910942  -1608.646961 -29460.126665     -0.013753                    
P 32 -17226.395909   6823.639049 -18808.093443   -222.486123                    
V 32   8027.582404 -22954.649386 -15747.061493     -0.110600                    
EOF
